[{"OBJECT_NAME":"STARLINK-5538","OBJECT_ID":"2023-058AS","EPOCH":"2026-03-09T23:22:38.936064","MEAN_MOTION":15.05646412,"ECCENTRICITY":0.00018711,"INCLINATION":97.604,"RA_OF_ASC_NODE":71.5649,"ARG_OF_PERICENTER":86.2695,"MEAN_ANOMALY":273.8745,"EPHEMERIS_TYPE":0,"CLASSIFICATION_TYPE":"U","NORAD_CAT_ID":56357,"ELEMENT_SET_NO":999,"REV_AT_EPOCH":15824,"BSTAR":-1.2001266e-5,"MEAN_MOTION_DOT":-2.34e-6,"MEAN_MOTION_DDOT":0},{"OBJECT_NAME":"COSMOS 374 DEB","OBJECT_ID":"1970-089R","EPOCH":"2026-03-09T23:31:48.583488","MEAN_MOTION":14.77254595,"ECCENTRICITY":0.02111715,"INCLINATION":62.9169,"RA_OF_ASC_NODE":36.0296,"ARG_OF_PERICENTER":183.9757,"MEAN_ANOMALY":175.9665,"EPHEMERIS_TYPE":0,"CLASSIFICATION_TYPE":"U","NORAD_CAT_ID":4699,"ELEMENT_SET_NO":999,"REV_AT_EPOCH":69712,"BSTAR":0.00093271905,"MEAN_MOTION_DOT":9.446e-5,"MEAN_MOTION_DDOT":0}]
